MBG2001 17.44  0.15 K171K 179.07344  136.73400  174.35125   10.75854  0.0158189  0.17475300   3.1684945    FO 170213     4   1 55.3 min  0.08         Find_Orb   0000 MBG2001                     20170120
MBG2002 20.38  0.15 K171K 359.88101  310.88702  176.46775    6.86572  0.2050366  0.26852043   2.3794934    FO 170213     4   1 55.3 min  0.05         Find_Orb   0000 MBG2002                     20170120
MBG2003 20.86  0.15 K171K 359.86398  265.73366  221.20722    4.74985  0.2457259  0.28057480   2.3108421    FO 170213     4   1 55.3 min  0.07         Find_Orb   0000 MBG2003                     20170120
MBG4001 21.09  0.15 K171K 359.85842  304.92786  177.70975    4.92600  0.2785192  0.29315759   2.2442365    FO 170213     4   1 55.3 min  0.04         Find_Orb   0000 MBG4001                     20170120
MBG6001 18.27  0.15 K171K  42.83016  167.11667  262.61573    7.92975  0.1274170  0.29897001   2.2150539    FO 170213     2   1 19.4 min  0.00         Find_Orb   0000 MBG6001                     20170120
